OBJECT_NAME,OBJECT_ID,EPOCH,MEAN_MOTION,ECCENTRICITY,INCLINATION,RA_OF_ASC_NODE,ARG_OF_PERICENTER,MEAN_ANOMALY,EPHEMERIS_TYPE,CLASSIFICATION_TYPE,NORAD_CAT_ID,ELEMENT_SET_NO,REV_AT_EPOCH,BSTAR,MEAN_MOTION_DOT,MEAN_MOTION_DDOT
GUOWANG OBJECT A,2026-137A,2026-07-12T21:25:09.001056,13.89812741,.0012495,49.9997,153.0717,311.3863,48.5960,0,U,69572,999,359,.2450247E-5,-.143E-5,0
GUOWANG OBJECT B,2026-137B,2026-07-09T15:41:33.480672,13.89803849,.00118595,50.0016,165.9303,298.8434,61.1273,0,U,69573,999,315,-.55136387E-4,-.214E-5,0
GUOWANG OBJECT C,2026-137C,2026-07-12T21:19:24.187296,13.89814739,.0011896,49.9967,153.0345,311.4365,48.5511,0,U,69574,999,360,-.2748005E-4,-.18E-5,0
GUOWANG OBJECT D,2026-137D,2026-07-16T15:10:32.607840,13.85253720,.00005476,49.9997,138.1865,308.4892,51.5955,0,U,69575,999,412,-.52974018E-4,-.205E-5,0
GUOWANG OBJECT E,2026-137E,2026-07-12T00:33:49.286304,13.89824941,.00112248,50.0038,156.4799,310.0552,49.9361,0,U,69576,999,348,-.46562868E-4,-.204E-5,0
GUOWANG OBJECT F,2026-137F,2026-07-11T07:17:14.089920,13.89809360,.00108344,50.0028,159.3340,307.7048,52.2867,0,U,69577,999,338,-.46814787E-4,-.204E-5,0
GUOWANG OBJECT G,2026-137G,2026-07-11T07:16:00.337152,13.89795025,.0010806,49.9952,159.3085,307.5258,52.4657,0,U,69578,999,338,.35461E-5,-.142E-5,0
GUOWANG OBJECT H,2026-137H,2026-07-10T00:11:03.674688,13.89776278,.00102494,50.0012,164.4679,306.3680,53.6272,0,U,69579,999,320,-.23862216E-4,-.175E-5,0
GUOWANG OBJECT J,2026-137J,2026-06-27T06:41:01.268160,13.91997107,.0011832,49.9961,215.0979,257.3150,102.6427,0,U,69580,999,143,.13174E-3,.22E-6,0
CZ-12 R/B,2026-137K,2026-07-13T06:43:04.828800,14.11694334,.0077441,49.9888,147.7098,203.1402,156.6010,0,U,69581,999,369,.22245E-4,-.112E-5,0
CENTISPACE-1 GROUP 05 OBJECT A,2026-138A,2026-07-13T08:11:08.213856,14.15470945,.00113082,55.1388,184.5993,340.3719,19.6818,0,U,69582,999,372,.51929226E-4,-.52E-6,0
CENTISPACE-1 GROUP 05 OBJECT B,2026-138B,2026-07-13T11:29:39.475104,14.15650579,.00102958,55.1382,184.0587,341.1535,18.9057,0,U,69583,999,374,.4298808E-5,-.145E-5,0
CENTISPACE-1 GROUP 05 OBJECT C,2026-138C,2026-07-13T11:27:23.172192,14.15734094,.00102279,55.1387,184.0592,342.7982,17.2644,0,U,69584,999,374,-.21642051E-4,-.196E-5,0
CENTISPACE-1 GROUP 05 OBJECT D,2026-138D,2026-07-13T11:22:41.050272,14.15919525,.0009819,55.1385,184.0335,342.0163,18.0463,0,U,69585,999,374,-.74601835E-4,-.301E-5,0
CENTISPACE-1 GROUP 05 OBJECT E,2026-138E,2026-07-13T16:25:52.489056,14.15986491,.00095717,55.1377,183.2516,343.0370,17.0283,0,U,69586,999,377,-.74193315E-4,-.301E-5,0
CENTISPACE-1 GROUP 05 OBJECT F,2026-138F,2026-07-12T23:31:05.217600,14.15909909,.00094364,55.1382,185.8680,345.5018,14.5684,0,U,69587,999,367,-.69904551E-4,-.292E-5,0
CENTISPACE-1 GROUP 05 OBJECT G,2026-138G,2026-07-12T09:53:32.912736,14.16073930,.00086294,55.1383,187.9363,344.0005,16.0696,0,U,69588,999,359,-.11166998E-3,-.375E-5,0
SPACEMOBILE-008,2026-139A,2026-07-17T04:49:14.783520,15.12803619,.00051374,52.9950,126.3014,61.2203,298.9303,0,U,69589,999,452,.32352775E-4,.273E-5,0
SPACEMOBILE-009,2026-139B,2026-07-17T04:52:16.568256,15.12696995,.0005408,52.9941,126.3087,57.2840,302.8672,0,U,69590,999,452,.33869431E-4,.298E-5,0
SPACEMOBILE-010,2026-139C,2026-07-17T04:57:04.562784,15.12530958,.00053327,52.9948,126.3326,49.3144,310.8309,0,U,69591,999,453,.46400419E-4,.517E-5,0
KUIPER-00423,2026-140A,2026-07-16T13:07:05.668032,15.38576772,.0013428,51.8791,256.5076,274.9771,84.9683,0,U,69592,999,575,.47033E-3,.17891E-3,0
KUIPER-00428,2026-140B,2026-07-16T12:31:04.800576,15.36968930,.0007621,51.8788,257.0785,36.6922,323.4585,0,U,69593,999,574,.31057E-3,.11038E-3,0
KUIPER-00481,2026-140C,2026-07-16T11:50:19.804128,15.38048200,.0011053,51.8779,256.8906,284.4682,75.5079,0,U,69594,999,574,.39537E-3,.14695E-3,0
KUIPER-00490,2026-140D,2026-07-17T03:40:10.247232,15.37994702,.00065909,51.8754,253.8040,348.2287,11.8545,0,U,69595,999,584,.52822015E-3,.19722E-3,0
KUIPER-00493,2026-140E,2026-07-16T14:12:52.179840,15.36618338,.0008108,51.8787,256.8020,42.9897,317.1722,0,U,69596,999,575,.31187E-3,.1096E-3,0
KUIPER-00496,2026-140F,2026-07-16T10:09:19.448064,15.34266538,.0010135,51.8777,257.9019,54.2206,305.9720,0,U,69597,999,572,.11067E-3,.3351E-4,0
KUIPER-00513,2026-140G,2026-07-17T03:35:05.595648,15.38190705,.00073512,51.8795,253.7949,346.2552,13.8234,0,U,69598,999,584,.38985765E-3,.14538E-3,0
KUIPER-00516,2026-140H,2026-07-17T03:48:04.325760,15.37626162,.00070293,51.8776,253.8435,2.7166,357.3858,0,U,69599,999,584,.44019357E-3,.16165E-3,0
KUIPER-00517,2026-140J,2026-07-17T03:12:08.815968,15.38791542,.00103192,51.8769,253.6826,301.9296,58.0687,0,U,69600,999,584,.40999031E-3,.15633E-3,0
KUIPER-00520,2026-140K,2026-07-16T13:46:56.020800,15.37671975,.0007453,51.8807,256.6928,0.6161,359.4834,0,U,69601,999,575,.35883E-3,.13119E-3,0
